[{"OBJECT_NAME":"EOS-6 (OCEANSAT-3)","OBJECT_ID":"2022-158A","EPOCH":"2026-03-09T22:24:42.764256","MEAN_MOTION":14.47005704,"ECCENTRICITY":1.733e-5,"INCLINATION":98.3487,"RA_OF_ASC_NODE":168.4787,"ARG_OF_PERICENTER":158.292,"MEAN_ANOMALY":201.828,"EPHEMERIS_TYPE":0,"CLASSIFICATION_TYPE":"U","NORAD_CAT_ID":54361,"ELEMENT_SET_NO":999,"REV_AT_EPOCH":17348,"BSTAR":0.00014313559,"MEAN_MOTION_DOT":4.77e-6,"MEAN_MOTION_DDOT":0},{"OBJECT_NAME":"DELTA 1 DEB","OBJECT_ID":"1972-058BS","EPOCH":"2026-03-09T21:08:20.003712","MEAN_MOTION":14.08320304,"ECCENTRICITY":0.02697448,"INCLINATION":97.6841,"RA_OF_ASC_NODE":231.6852,"ARG_OF_PERICENTER":157.7103,"MEAN_ANOMALY":203.606,"EPHEMERIS_TYPE":0,"CLASSIFICATION_TYPE":"U","NORAD_CAT_ID":7907,"ELEMENT_SET_NO":999,"REV_AT_EPOCH":56555,"BSTAR":0.00077849725,"MEAN_MOTION_DOT":1.826e-5,"MEAN_MOTION_DDOT":0}]
